[{"OBJECT_NAME":"STARLINK-3244","OBJECT_ID":"2021-115T","EPOCH":"2026-03-09T11:38:00.402432","MEAN_MOTION":15.08838653,"ECCENTRICITY":0.00015251,"INCLINATION":53.2179,"RA_OF_ASC_NODE":150.0538,"ARG_OF_PERICENTER":82.8831,"MEAN_ANOMALY":277.2335,"EPHEMERIS_TYPE":0,"CLASSIFICATION_TYPE":"U","NORAD_CAT_ID":49741,"ELEMENT_SET_NO":999,"REV_AT_EPOCH":23550,"BSTAR":-2.9319888e-5,"MEAN_MOTION_DOT":-7.55e-6,"MEAN_MOTION_DDOT":0},{"OBJECT_NAME":"STARLING 3","OBJECT_ID":"2023-100D","EPOCH":"2026-03-09T22:41:57.048288","MEAN_MOTION":15.11145977,"ECCENTRICITY":0.00066311,"INCLINATION":99.5096,"RA_OF_ASC_NODE":65.6477,"ARG_OF_PERICENTER":76.1122,"MEAN_ANOMALY":284.0839,"EPHEMERIS_TYPE":0,"CLASSIFICATION_TYPE":"U","NORAD_CAT_ID":57389,"ELEMENT_SET_NO":999,"REV_AT_EPOCH":14507,"BSTAR":0.00051487914,"MEAN_MOTION_DOT":8.551e-5,"MEAN_MOTION_DDOT":0}]
